HYPERFIELD-1A           
1 60562U 24149CY  26068.76488211  .00008569  00000+0  30052-3 0  9998
2 60562  97.3842 149.5066 0003865 313.7844  46.3076 15.29681349 86836
STARLINK-34293          
1 64275U 25120V   26068.43915435  .00017508  00000+0  60169-3 0  9995
2 64275  53.1596 118.1471 0001064  94.3322 265.7800 15.30209290 43817
