[{"OBJECT_NAME":"HYPERFIELD-1A","OBJECT_ID":"2024-149CY","EPOCH":"2026-03-09T18:21:25.814304","MEAN_MOTION":15.29681349,"ECCENTRICITY":0.00038648,"INCLINATION":97.3842,"RA_OF_ASC_NODE":149.5066,"ARG_OF_PERICENTER":313.7844,"MEAN_ANOMALY":46.3076,"EPHEMERIS_TYPE":0,"CLASSIFICATION_TYPE":"U","NORAD_CAT_ID":60562,"ELEMENT_SET_NO":999,"REV_AT_EPOCH":8683,"BSTAR":0.00030052114,"MEAN_MOTION_DOT":8.569e-5,"MEAN_MOTION_DDOT":0},{"OBJECT_NAME":"STARLINK-34293","OBJECT_ID":"2025-120V","EPOCH":"2026-03-09T10:32:22.935840","MEAN_MOTION":15.3020929,"ECCENTRICITY":0.0001064,"INCLINATION":53.1596,"RA_OF_ASC_NODE":118.1471,"ARG_OF_PERICENTER":94.3322,"MEAN_ANOMALY":265.78,"EPHEMERIS_TYPE":0,"CLASSIFICATION_TYPE":"U","NORAD_CAT_ID":64275,"ELEMENT_SET_NO":999,"REV_AT_EPOCH":4381,"BSTAR":0.00060169301,"MEAN_MOTION_DOT":0.00017508,"MEAN_MOTION_DDOT":0}]
